#dP2021  2 22 18  0  0.00000000      96 __u+U ITR00 EXT  IAC
## 2146 151200.00000000   900.00000000 59267 0.7500000000000
+  117   C06C07C08C09C10C11C12C13C14C16C19C20C21C22C23C24C25
+        C26C27C28C29C30C32C33C34C35C36C37C38C39C40C41C42C43
+        C44C45C46E01E02E03E04E05E07E08E09E11E12E13E14E15E18
+        E19E21E24E25E26E27E30E31E33E36G01G02G03G04G05G06G07
+        G08G09G10G11G12G13G14G15G16G17G18G19G20G21G22G23G24
+        G25G26G27G28G29G30G31G32J01J02J03R01R02R03R04R05R07
+        R08R09R11R12R13R14R15R16R17R18R19R20R21R22R24  0  0
++        10 10  8 10  9  9  8  8  9  9 10  8  8  9 10 10  8
++         8  8  9 10  9  8  8 10 10 10  8 10 11  9 11  9 10
++         9  7  9  8  7  8  8  8  8  7  8  8  8  7  7  9  9
++         9  7  8  7  7  7  8  9  7  8  7  8  8  7  8  7  8
++         6  9  8  9  7  8  7  9  8  9  7  8  8  7  9  8  8
++         8  7  6  7  7  7  8  8  7 10 11  9 10  9  8  8  9
++         8  9  8  8  7  9  8  9  9  9  9  9  8 10  9  0  0
%c M  cc GPS ccc cccc cccc cccc cccc ccccc ccccc ccccc ccccc
%c cc cc ccc ccc cccc cccc cccc cccc ccccc ccccc ccccc ccccc
%f  0.0000000  0.000000000  0.00000000000  0.000000000000000
%f  0.0000000  0.000000000  0.00000000000  0.000000000000000
%i    0    0    0    0      0      0      0      0         0
%i    0    0    0    0      0      0      0      0         0
/* IAC                                ULTRA-RAPID PREDICTION
/* S/V CLOCKS ARE ALIGNED TO GNSS TIME                      
/* G:C1WC2W R:C1PC2P E:C1XC5X C:C2IC6I J:C1CC2S             
/* PCV:IGS14_2134 OL/AL:FES2004  NONE     YN ORB:CoN CLK:CoN
*  2021 02 22 20 15  0.00000000
PC06  -9645.600107  37035.307029  18652.459788    115.571892
PC07 -15377.451516  22224.622490 -32164.877666   -352.665016
PC08 -25261.090328  30241.949009  14584.085338   -909.721860
PC09   -864.686671  42135.157916   4870.887107    714.876107
PC10     83.025519  27160.368176 -31978.382452    -82.128349
PC11  10275.080546  19558.907034  17091.235415   -907.620098
PC12   -356.743728  27878.953448   1017.275475    816.834197
PC13 -11886.557173  30935.194101  26023.771172    152.765873
PC14  20877.386104  17499.637756   5947.701012    199.018860
PC16  -7027.779429  38371.551460  16369.956300   -706.517171
PC19 -24864.293474 -12197.253325   3518.341296    737.587124
PC20 -14908.024627 -19624.055059 -13100.511290   -918.772047
PC21  -4536.514758  15631.288345  22684.466742   -851.232117
PC22 -20705.242937   2459.321254  18564.287727   -889.744987
PC23  25358.904532 -11341.203889  -2702.044449   -875.876437
PC24   4141.457459  16019.061922 -22482.495475   -766.370979
PC25  21512.367280   2276.764052 -17649.616619   -942.876124
PC26 -13615.702636  19577.225526 -14475.156766    944.752600
PC27   6707.704867 -25817.614725   8146.484025    487.740488
PC28  14946.378396 -10738.156359  20983.210209   -106.329104
PC29 -14795.804305 -10020.662271 -21435.546450    356.034711
PC30  -6094.482182 -25704.643942  -8953.649388    447.130039
PC32   4400.459902 -15672.649134 -22650.528741   -899.093113
PC33  24890.351988  12132.927110  -3394.987921   -956.493896
PC34   6447.543997  25434.614798   9536.906885   -733.964328
PC35 -14695.889018  10964.133247 -21048.953954   -405.533039
PC36 -21227.222105  -3066.079133  17868.746186   -751.494483
PC37  14856.955935 -19174.886428  13827.371602   -867.705116
PC38 -22531.857575  31785.382152  16005.976368    131.719795
PC39  -4230.395100  38770.174683  16202.995519     28.730817
PC40  -3857.099144  22546.994537 -35400.869030    134.263610
PC41  20866.923559  -2300.921965 -18341.215226   -929.797336
PC42  14238.150977  19729.851249  13699.143532   -888.044640
PC43  14726.050633  10639.260616  21186.919327   -609.841225
PC44  -6023.025362  25970.529260  -8315.727943     52.284995
PC45 -25295.223021  11452.288497   2641.650694    369.252889
PC46  -4973.556720 -15516.094592  22657.680914    393.159940
PE01   8465.132378 -15982.933422  23430.810860  -1051.721642
PE02  -8299.208960  16008.204915 -23474.979325    200.329590
PE03     40.267632  23772.561728  17626.889668   -401.594933
PE04 -14952.822984 -25525.506150  -1000.236047   -715.302025
PE05 -15111.823345   8044.149783  24148.114989   -302.397896
PE07  21298.122187  12222.039520 -16518.319149   -504.291100
PE08  15267.944576  25342.051263    715.514135   6043.039102
PE09 -21285.187084 -12028.370906  16698.156023   5756.612535
PE11 -16999.107952  -1718.528171 -24173.079477   6286.956771
PE12  -4278.256962 -20821.965445 -20580.890561   5342.936084
PE13  16753.596442   2110.324078  24321.071354    412.522652
PE14   9712.192535 -15258.371143  16512.677113  -1339.108321
PE15   4320.628437  20775.117660  20654.417214    827.986156
PE18 -17645.395842  10922.669377 -24158.422967  -1463.981502
PE19   1783.367696 -22521.345775 -19119.809160    210.427588
PE21  25653.035619  -8762.231792  11894.145102   -649.937425
PE24 -28274.869766  -4382.527964   7507.526053   -757.755823
PE25 -25744.159245   8665.979527 -11747.077380   -527.000864
PE26  19363.718312 -18217.520693  13022.481505   2117.652256
PE27  28536.882994   3813.831236  -6912.513733     24.297120
PE30  13749.153671  14458.598561 -21884.651659   3159.850981
PE31 -14617.510392 -14076.286281  21548.495008   -478.543567
PE33  10651.806669 -27184.911563  -4818.670479   -465.932508
PE36 -19315.141697  17786.735057 -13663.057829    437.069566
PG01  13252.356503 -21943.603462  -6463.999738    755.709533
PG02 -19602.791878  10177.452459 -14110.075770   -579.575403
PG03   7298.713397 -13754.501136 -21583.271470    -90.121452
PG04   3902.701620 -21675.929442 -14798.974989   -182.026736
PG05 -23603.708372   4646.149913  11312.054780    -34.421365
PG06 -15404.536653  -3758.537034 -21252.931496     -1.965589
PG07    437.902804 -19850.614296  17733.628202     67.888228
PG08   8387.041393 -15805.636113  19530.607063    -11.282484
PG09  -6029.126942 -25432.663311  -4706.433510   -325.327434
PG10  21046.048418  11805.823899  11503.238265    -67.155969
PG11  10175.276598 -23848.681507   6140.283682    -17.245753
PG12 -12368.962004  11377.985049 -20779.293620     -4.790784
PG13 -14062.867120   5551.512760  21694.487065    100.225492
PG14 -19330.338982 -13359.897230  12383.412661     98.365939
PG15  -7047.984915  17102.399282  18575.818537   -167.621197
PG16  24804.465411    -87.601953   9876.382534   -284.089127
PG17 -13521.909109 -19694.980585 -11175.725323    398.658018
PG18   1608.279697  18207.899967  19245.534842    348.405555
PG19 -15406.541230 -12597.858223 -17916.850439    -35.014902
PG20  10671.395835  14681.380068  19423.212586    524.562605
PG21  17248.881582 -19715.572461   3256.265271     97.782588
PG22  16290.718435 -11463.231808 -17286.746220   -674.019943
PG23  11235.406608  14988.765339  18822.485957    118.387173
PG24 -15151.286085  21543.698678   -795.832573      1.969058
PG25   3731.603155  15786.803178 -21336.139766     85.797271
PG26  26366.518627   4203.953415   -723.362679     48.710416
PG27  14813.086365  -2286.123690  21792.035212    -81.460095
PG28 -20615.351609 -13239.814229  10568.910095    611.765820
PG29   4001.153721  25825.813095  -4661.358593   -299.848285
PG30 -10397.436531 -11932.675333  21365.363974   -388.732191
PG31  17663.424826   1419.031539 -20000.996202   -101.678487
PG32  15618.344489  17763.447181 -12151.012068     19.579908
PJ01 -25469.867254  22277.768184  30229.119990   -342.797699
PJ02 -35097.704391  16574.516454 -11953.641589      2.272082
PJ03 -20575.523709  29725.969408 -17028.653563     -0.984534
PR01  15877.890236   1050.951576 -19930.348040     75.402875
PR02  -1030.588344 -14355.217506 -21003.256441    468.075729
PR03 -15000.183713 -18840.508108  -8286.514670     31.225079
PR04 -20254.007523 -12673.283224   8952.494770     75.048621
PR05 -14172.195351    533.948693  21206.767039     66.952912
PR07  15354.814658  18869.761862   7782.798684    -42.497308
PR08  20280.970328  12679.628126  -8839.951079    -57.550192
PR09 -11537.818529  13434.425989 -18375.954681    -20.423770
PR11  21187.222997   -182.525966 -14191.257711      2.937530
PR12  23513.098447  -9374.369166   3283.053278    207.166914
PR13  12021.254472 -13250.029656  18162.613171    -51.091697
PR14  -7042.996254  -9223.247026  22721.444286     61.280194
PR15 -21414.703558      2.392353  13867.951293    105.256986
PR16 -22895.939684  10264.741460  -4210.535219    -11.654042
PR17  -1758.529730 -21401.185564 -13780.498975    402.341870
PR18  -9004.794030  -6793.818441 -22852.242991     67.536172
PR19 -11781.586185  10306.556340 -20135.570699   -133.098029
PR20  -7732.033593  24041.771262  -3754.134496   -433.796961
PR21   2252.341753  20664.112304  14775.791157   -189.617049
PR22   9242.949763   5789.687614  23058.154308    -99.260503
PR24   7200.679314 -24286.110574   3057.483353     32.539677
EOF
